FENGYUN 1C DEB          
1 35093U 99025DJV 17343.34104885  .00001543  00000-0  36229-3 0  9994
2 35093  98.6862  27.6576 0161421 170.9201 189.4973 14.48339475236335
